ORBCOMM FM20 [+]        
1 25416U 98046D   24103.25822806  .00001185  00000+0  46092-3 0  9996
2 25416  44.9956  58.6739 0001802 305.1259  54.9419 14.35065355342313
ORBCOMM FM15 [-]        
1 25418U 98046F   24103.18696228  .00001457  00000+0  54795-3 0  9998
2 25418  44.9986  58.9814 0004939 301.1632  58.8731 14.35725762342247
ORBCOMM FM13 [+]        
1 25420U 98046H   24103.24666024  .00001404  00000+0  53546-3 0  9994
2 25420  44.9987  62.5676 0005867 284.2457  75.7738 14.35190710341271
ORBCOMM FM21 [-]        
1 25475U 98053A   24103.47458116  .00000952  00000+0  37930-3 0  9994
2 25475  45.0078 145.7738 0002716 258.2968 101.7574 14.35149919335327
ORBCOMM FM22 [-]        
1 25476U 98053B   24103.46227047  .00001255  00000+0  47957-3 0  9998
2 25476  45.0073 143.2301 0004063 244.6768 115.3658 14.35650229335310
ORBCOMM FM23 [-]        
1 25477U 98053C   24103.08593961  .00000895  00000+0  35932-3 0  9997
2 25477  45.0077 150.0428 0003460 244.1031 115.9460 14.35184221335411
